format  = 'OEF2.0'       ! file format
rectype = 'ML'           ! record type (1L/ML)
refsys  = ECLM J2000     ! default reference system
END_OF_HEADER
2015AB
! Keplerian elements: a, e, i, long. node, arg. peric., mean anomaly
 KEP   1.8017171901719435E+00  2.8358894214618946E-01  11.6071032699135   0.3707170809952  71.4294287087190  1.9543855004210124E+02
 MJD     61000.000000000 TDT
 MAG  20.292  0.150
! Non-gravitational parameters: model used, number of model parameters, dimension
 LSP   0  0    6
! PERIHELION   1.2907701181644771E+00
! APHELION   2.3126642621794096E+00
! ANODE   5.1574306426658800E-01
! DNODE   8.2400883913712297E-01
! MOID   3.6555618938769247E-01
! PERIOD   8.8334094217746156E+02
! PHA F
! VINFTY     0.0000000000000
! U_PAR 0.3
! ORB_TYPE Amor  
! RMS    1.64976E-08   9.35308E-08   8.60978E-06   5.08016E-05   5.45880E-05   3.98923E-05
 COV   2.721703095189966E-16  9.619509255590320E-16 -5.224121159209918E-14
 COV   9.869326808115291E-14  2.475575605003480E-13 -6.027904795029496E-13
 COV   8.748014612313942E-15 -4.434862369980244E-13  8.764335708800415E-13
 COV   1.233846679896620E-12 -2.819489327543301E-12  7.412829470731384E-11
 COV  -2.638189081267273E-10  1.234753572675526E-10  1.647889984125536E-10
 COV   2.580801652233382E-09 -2.268268883036375E-09 -3.169287106895989E-10
 COV   2.979849763525462E-09 -8.280764740340832E-10  1.591396975702502E-09
 COR   1.000000000000000E+00  6.234157833522578E-01 -3.677908007049814E-01
 COR   1.177578431650786E-01  2.748898070785768E-01 -9.159183218414585E-01
 COR   1.000000000000000E+00 -5.507232251853729E-01  1.844535170328369E-01
 COR   2.416624992514522E-01 -7.556600121472802E-01  1.000000000000000E+00
 COR  -6.031656487673184E-01  2.627187701497199E-01  4.797853083589689E-01
 COR   1.000000000000000E+00 -8.179373435115210E-01 -1.563849680214091E-01
 COR   1.000000000000000E+00 -3.802629366995993E-01  1.000000000000000E+00
